0 DELTA 1 DEB
1 12217U 78026BJ  13282.94689494  .00000550  00000-0  29200-3 0  4592
2 12217 098.5278 269.9435 0023090 139.2525 274.4776 14.17312791683058
0 DELTA 1 DEB
1 12217U 78026BJ  13285.78431979  .00000524  00000-0  27928-3 0  4619
2 12217 098.5278 272.6664 0023197 131.4207 351.6061 14.17316386683455
0 DELTA 1 DEB
1 12217U 78026BJ  13286.90129324  .00000604  00000-0  31869-3 0  4621
2 12217 098.5278 273.7383 0023232 128.3231 290.6628 14.17317385683616
0 DELTA 1 DEB
1 12217U 78026BJ  13287.95930870  .00000820  00000-0  42526-3 0  4636
2 12217 098.5280 274.7535 0023251 125.4227 288.8725 14.17319586683761
0 DELTA 1 DEB
1 12217U 78026BJ  13289.52553341  .00000600  00000-0  31645-3 0  4642
2 12217 098.5283 276.2563 0023309 121.1374 000.0716 14.17322707683989
0 DELTA 1 DEB
1 12217U 78026BJ  13290.71229922  .00000664  00000-0  34800-3 0  4657
2 12217 098.5286 277.3951 0023321 117.8964 295.1987 14.17324438684156
0 DELTA 1 DEB
1 12217U 78026BJ  13292.19621764  .00000686  00000-0  35902-3 0  4660
2 12217 098.5290 278.8190 0023364 113.7792 306.5379 14.17325932684368
0 DELTA 1 DEB
1 12217U 78026BJ  13293.47894425  .00000773  00000-0  40177-3 0  4676
2 12217 098.5291 280.0500 0023390 110.2587 011.3148 14.17327744684540
0 DELTA 1 DEB
1 12217U 78026BJ  13294.81969046  .00000838  00000-0  43366-3 0  4683
2 12217 098.5292 281.3369 0023399 106.6018 012.1080 14.17329860684731
0 DELTA 1 DEB
1 12217U 78026BJ  13295.93637347  .00000803  00000-0  41641-3 0  4690
2 12217 098.5292 282.4086 0023398 103.5571 309.6814 14.17332064684894
